CCSDS_OMM_VERS = 2.0
CREATION_DATE  = 
ORIGINATOR     = 

OBJECT_NAME    = PROGRESS-MS 32
OBJECT_ID      = 2025-204A
CENTER_NAME    = EARTH
REF_FRAME      = TEME
TIME_SYSTEM    = UTC
MEAN_ELEMENT_THEORY = SGP/SGP4

EPOCH          = 2025-10-31T03:59:25.206144
MEAN_MOTION    = 15.49645314
ECCENTRICITY   = .00049108
INCLINATION    = 51.6343
RA_OF_ASC_NODE = 353.2496
ARG_OF_PERICENTER = 359.9780
MEAN_ANOMALY   = 0.1208

EPHEMERIS_TYPE = 0
CLASSIFICATION_TYPE = U
NORAD_CAT_ID   = 65586
ELEMENT_SET_NO = 999
REV_AT_EPOCH   = 27
BSTAR          = .31236461E-3
MEAN_MOTION_DOT = .17194E-3
MEAN_MOTION_DDOT = 0

CCSDS_OMM_VERS = 2.0
CREATION_DATE  = 
ORIGINATOR     = 

OBJECT_NAME    = CYGNUS NG-23
OBJECT_ID      = 2025-208A
CENTER_NAME    = EARTH
REF_FRAME      = TEME
TIME_SYSTEM    = UTC
MEAN_ELEMENT_THEORY = SGP/SGP4

EPOCH          = 2025-10-31T03:59:25.206144
MEAN_MOTION    = 15.49645314
ECCENTRICITY   = .00049108
INCLINATION    = 51.6343
RA_OF_ASC_NODE = 353.2496
ARG_OF_PERICENTER = 359.9780
MEAN_ANOMALY   = 0.1208

EPHEMERIS_TYPE = 0
CLASSIFICATION_TYPE = U
NORAD_CAT_ID   = 65616
ELEMENT_SET_NO = 999
REV_AT_EPOCH   = 22
BSTAR          = .31236461E-3
MEAN_MOTION_DOT = .17194E-3
MEAN_MOTION_DDOT = 0

CCSDS_OMM_VERS = 2.0
CREATION_DATE  = 
ORIGINATOR     = 

OBJECT_NAME    = DRAGONFLY
OBJECT_ID      = 1998-067XH
CENTER_NAME    = EARTH
REF_FRAME      = TEME
TIME_SYSTEM    = UTC
MEAN_ELEMENT_THEORY = SGP/SGP4

EPOCH          = 2025-10-31T12:47:51.868608
MEAN_MOTION    = 15.59463814
ECCENTRICITY   = .0003312
INCLINATION    = 51.6321
RA_OF_ASC_NODE = 349.7034
ARG_OF_PERICENTER = 60.6779
MEAN_ANOMALY   = 299.4544

EPHEMERIS_TYPE = 0
CLASSIFICATION_TYPE = U
NORAD_CAT_ID   = 65729
ELEMENT_SET_NO = 999
REV_AT_EPOCH   = 655
BSTAR          = .13232E-2
MEAN_MOTION_DOT = .107808E-2
MEAN_MOTION_DDOT = 0

CCSDS_OMM_VERS = 2.0
CREATION_DATE  = 
ORIGINATOR     = 

OBJECT_NAME    = 1998-067XK
OBJECT_ID      = 1998-067XK
CENTER_NAME    = EARTH
REF_FRAME      = TEME
TIME_SYSTEM    = UTC
MEAN_ELEMENT_THEORY = SGP/SGP4

EPOCH          = 2025-10-31T11:48:49.402080
MEAN_MOTION    = 15.57515864
ECCENTRICITY   = .000479
INCLINATION    = 51.6329
RA_OF_ASC_NODE = 350.1810
ARG_OF_PERICENTER = 37.8224
MEAN_ANOMALY   = 322.3104

EPHEMERIS_TYPE = 0
CLASSIFICATION_TYPE = U
NORAD_CAT_ID   = 65731
ELEMENT_SET_NO = 999
REV_AT_EPOCH   = 654
BSTAR          = .10519E-2
MEAN_MOTION_DOT = .79238E-3
MEAN_MOTION_DDOT = 0

CCSDS_OMM_VERS = 2.0
CREATION_DATE  = 
ORIGINATOR     = 

OBJECT_NAME    = RSP-03
OBJECT_ID      = 1998-067XL
CENTER_NAME    = EARTH
REF_FRAME      = TEME
TIME_SYSTEM    = UTC
MEAN_ELEMENT_THEORY = SGP/SGP4

EPOCH          = 2025-10-31T13:04:53.707584
MEAN_MOTION    = 15.58468460
ECCENTRICITY   = .0005529
INCLINATION    = 51.6324
RA_OF_ASC_NODE = 349.7830
ARG_OF_PERICENTER = 38.8164
MEAN_ANOMALY   = 321.3225

EPHEMERIS_TYPE = 0
CLASSIFICATION_TYPE = U
NORAD_CAT_ID   = 65732
ELEMENT_SET_NO = 999
REV_AT_EPOCH   = 656
BSTAR          = .11758E-2
MEAN_MOTION_DOT = .92034E-3
MEAN_MOTION_DDOT = 0

CCSDS_OMM_VERS = 2.0
CREATION_DATE  = 
ORIGINATOR     = 

OBJECT_NAME    = GHS-01
OBJECT_ID      = 1998-067XM
CENTER_NAME    = EARTH
REF_FRAME      = TEME
TIME_SYSTEM    = UTC
MEAN_ELEMENT_THEORY = SGP/SGP4

EPOCH          = 2025-10-31T12:36:36.639648
MEAN_MOTION    = 15.60136598
ECCENTRICITY   = .0003796
INCLINATION    = 51.6330
RA_OF_ASC_NODE = 349.6530
ARG_OF_PERICENTER = 57.6162
MEAN_ANOMALY   = 302.5198

EPHEMERIS_TYPE = 0
CLASSIFICATION_TYPE = U
NORAD_CAT_ID   = 65733
ELEMENT_SET_NO = 999
REV_AT_EPOCH   = 656
BSTAR          = .14261E-2
MEAN_MOTION_DOT = .119443E-2
MEAN_MOTION_DDOT = 0

CCSDS_OMM_VERS = 2.0
CREATION_DATE  = 
ORIGINATOR     = 

OBJECT_NAME    = YOTSUBA-KULOVER
OBJECT_ID      = 1998-067XN
CENTER_NAME    = EARTH
REF_FRAME      = TEME
TIME_SYSTEM    = UTC
MEAN_ELEMENT_THEORY = SGP/SGP4

EPOCH          = 2025-10-31T04:48:02.193696
MEAN_MOTION    = 15.53087293
ECCENTRICITY   = .00025259
INCLINATION    = 51.6335
RA_OF_ASC_NODE = 352.7259
ARG_OF_PERICENTER = 341.0736
MEAN_ANOMALY   = 19.0160

EPHEMERIS_TYPE = 0
CLASSIFICATION_TYPE = U
NORAD_CAT_ID   = 65941
ELEMENT_SET_NO = 999
REV_AT_EPOCH   = 323
BSTAR          = .96446683E-3
MEAN_MOTION_DOT = .61481E-3
MEAN_MOTION_DDOT = 0

CCSDS_OMM_VERS = 2.0
CREATION_DATE  = 
ORIGINATOR     = 

OBJECT_NAME    = BOTAN
OBJECT_ID      = 1998-067XP
CENTER_NAME    = EARTH
REF_FRAME      = TEME
TIME_SYSTEM    = UTC
MEAN_ELEMENT_THEORY = SGP/SGP4

EPOCH          = 2025-10-30T13:14:20.391360
MEAN_MOTION    = 15.53757174
ECCENTRICITY   = .00045197
INCLINATION    = 51.6336
RA_OF_ASC_NODE = 355.8960
ARG_OF_PERICENTER = 355.9022
MEAN_ANOMALY   = 4.1931

EPHEMERIS_TYPE = 0
CLASSIFICATION_TYPE = U
NORAD_CAT_ID   = 65942
ELEMENT_SET_NO = 999
REV_AT_EPOCH   = 313
BSTAR          = .13052464E-2
MEAN_MOTION_DOT = .85715E-3
MEAN_MOTION_DDOT = 0

CCSDS_OMM_VERS = 2.0
CREATION_DATE  = 
ORIGINATOR     = 

OBJECT_NAME    = E-KAGAKU-1
OBJECT_ID      = 1998-067XQ
CENTER_NAME    = EARTH
REF_FRAME      = TEME
TIME_SYSTEM    = UTC
MEAN_ELEMENT_THEORY = SGP/SGP4

EPOCH          = 2025-10-30T13:20:49.786656
MEAN_MOTION    = 15.52998589
ECCENTRICITY   = .00042691
INCLINATION    = 51.6342
RA_OF_ASC_NODE = 355.9257
ARG_OF_PERICENTER = 345.4826
MEAN_ANOMALY   = 14.6041

EPHEMERIS_TYPE = 0
CLASSIFICATION_TYPE = U
NORAD_CAT_ID   = 65943
ELEMENT_SET_NO = 999
REV_AT_EPOCH   = 313
BSTAR          = .9954143E-3
MEAN_MOTION_DOT = .63292E-3
MEAN_MOTION_DDOT = 0

CCSDS_OMM_VERS = 2.0
CREATION_DATE  = 
ORIGINATOR     = 

OBJECT_NAME    = HRC MONOBLOCK CAMERA
OBJECT_ID      = 1998-067XR
CENTER_NAME    = EARTH
REF_FRAME      = TEME
TIME_SYSTEM    = UTC
MEAN_ELEMENT_THEORY = SGP/SGP4

EPOCH          = 2025-10-31T10:02:52.278432
MEAN_MOTION    = 15.50551938
ECCENTRICITY   = .0004369
INCLINATION    = 51.6330
RA_OF_ASC_NODE = 351.9350
ARG_OF_PERICENTER = 9.7443
MEAN_ANOMALY   = 350.3630

EPHEMERIS_TYPE = 0
CLASSIFICATION_TYPE = U
NORAD_CAT_ID   = 66052
ELEMENT_SET_NO = 999
REV_AT_EPOCH   = 226
BSTAR          = .66758E-3
MEAN_MOTION_DOT = .38592E-3
MEAN_MOTION_DDOT = 0

CCSDS_OMM_VERS = 2.0
CREATION_DATE  = 
ORIGINATOR     = 

OBJECT_NAME    = HTV-X1
OBJECT_ID      = 2025-241A
CENTER_NAME    = EARTH
REF_FRAME      = TEME
TIME_SYSTEM    = UTC
MEAN_ELEMENT_THEORY = SGP/SGP4

EPOCH          = 2025-10-31T03:59:25.206144
MEAN_MOTION    = 15.49645314
ECCENTRICITY   = .00049108
INCLINATION    = 51.6343
RA_OF_ASC_NODE = 353.2496
ARG_OF_PERICENTER = 359.9780
MEAN_ANOMALY   = 0.1208

EPHEMERIS_TYPE = 0
CLASSIFICATION_TYPE = U
NORAD_CAT_ID   = 66174
ELEMENT_SET_NO = 999
REV_AT_EPOCH   = 77
BSTAR          = .31236461E-3
MEAN_MOTION_DOT = .17194E-3
MEAN_MOTION_DDOT = 0

